[Satellite]
VERSION=1.1
NAME=IRIDIUM 22
NICKNAME=IRIDIUM 22
TLE1=1 24907U 97043E   22342.41683344  .00000368  00000+0  12340-3 0  9990
TLE2=2 24907  86.3960 140.0563 0002081  88.4012 271.7422 14.34601663324568
STATUS=2
